OBJECT_NAME,OBJECT_ID,EPOCH,MEAN_MOTION,ECCENTRICITY,INCLINATION,RA_OF_ASC_NODE,ARG_OF_PERICENTER,MEAN_ANOMALY,NORAD_CAT_ID,ELEMENT_SET_NO,REV_AT_EPOCH,BSTAR,MEAN_MOTION_DOT,MEAN_MOTION_DDOT
STARLINK-3855,2022-049Z,2026-03-21T07:21:46.242144,16.18070688,0.0004047,53.2083,336.1061,231.05,129.0179,52474.0,999.0,21443.0,0.0012654,0.01989498,0.0045088
NUSAT-31 (RUBY PAYNE-S),2022-057W,2026-03-21T06:11:44.051136,16.02020979,0.00064687,97.6399,251.3067,279.9884,80.0664,52752.0,999.0,21381.0,0.0013361518,0.00758643,0.00027708181
STARLINK-4038,2022-083U,2026-03-21T04:32:05.773344,16.0611007,0.00093986,53.1989,60.9252,53.878,306.3123,53150.0,999.0,20381.0,0.0010496715,0.00792551,0.00033306648
STARLINK-4404,2022-084G,2026-03-21T05:08:02.889312,16.02496231,0.00013,97.611,167.6592,1.4384,358.6899,53195.0,999.0,20331.0,0.00051035631,0.00297853,4.0607631e-05
STARLINK-4407,2022-084H,2026-03-21T05:43:34.665888,16.0395293,0.00029518,97.6052,168.2262,295.2116,64.8857,53196.0,999.0,20333.0,0.0004568756,0.00290701,3.9537526e-05
STARLINK-4057,2022-086AD,2026-03-21T03:46:21.692064,16.10960865,0.00032957,53.2109,114.6618,17.0869,343.0278,53269.0,999.0,20318.0,0.00084094227,0.00861833,0.00043549473
STARLINK-4361,2022-099AE,2026-03-21T07:12:05.487264,16.04971863,0.00029876,97.6495,221.7938,105.2265,254.9346,53493.0,999.0,19892.0,0.00044030177,0.00297841,4.2074919e-05
STARLINK-4465,2022-099AH,2026-03-21T06:00:02.999808,15.93761189,0.00029559,97.6406,228.4356,338.4409,178.6669,53496.0,999.0,594.0,0.0010920989,0.0039321,6.2570949e-05
STARLINK-4461,2022-099AQ,2026-03-20T21:20:32.288640,16.03399815,2.656e-05,97.6372,228.7563,81.2341,278.8968,53503.0,999.0,19934.0,0.0011249555,0.00691162,0.00023151394
STARLINK-4469,2022-105K,2026-03-21T06:46:08.918688,16.0055371,0.00041167,97.6278,347.4455,169.6791,190.4572,53657.0,999.0,19654.0,0.0011638269,0.00607278,0.00016798798
STARLINK-5024,2022-119R,2026-03-21T06:41:24.383616,15.94503167,0.00087094,53.1998,183.7622,357.5628,2.5357,53901.0,999.0,19468.0,0.0019781663,0.00764483,0.00025920654
STARLINK-5092,2023-014T,2026-03-21T02:08:43.893888,16.18432286,0.00053787,69.9985,17.7899,221.4097,138.6717,55408.0,999.0,17420.0,0.00078330463,0.01332193,4.175116e-06
OBJECT AF,2023-085AF,2026-03-21T03:51:43.980480,16.04218876,0.00143954,97.4778,212.0338,287.7003,72.2705,57033.0,999.0,15461.0,0.0019069944,0.01234135,0.00086795369
QIANKUN-1,2023-103B,2026-03-19T15:55:29.232192,16.0767999,0.00463814,96.1906,129.5554,154.456,205.9032,57422.0,999.0,15291.0,1.7409016e-05,0.00015727,1.66737e-06
OBJECT B,2023-104B,2026-03-21T05:24:43.377984,16.07939668,0.00093251,97.2696,170.0709,288.3872,71.6397,57425.0,999.0,14992.0,0.00095283727,0.00775702,0.00032162705
INTUITION-1,2023-174CW,2026-03-20T21:10:23.799360,16.15163977,0.0007385,97.3584,177.5008,276.1042,83.9402,58565.0,999.0,13267.0,0.0012745891,0.01615254,0.0022334108
STARLINK-31299,2024-041G,2026-03-21T13:23:31.149888,16.00100985,0.0020657,42.9771,117.184,84.2413,276.0819,59080.0,999.0,11757.0,0.0023818,0.01292043,0.00088233
SENTRY,2024-043AU,2026-03-20T22:45:51.224256,16.10464267,0.00064431,97.5258,235.7314,290.5063,69.5529,59140.0,999.0,11486.0,0.0012613268,0.01191404,0.00090737491
STARLINK-31867,2024-120E,2026-03-21T06:00:02.999808,15.95774215,0.00116224,53.1357,244.2708,267.2569,318.4963,60139.0,999.0,585.0,0.0015607471,0.00648239,0.00018822693
STARLINK-11331 [DTC],2024-184F,2026-03-21T06:00:02.999808,15.94257328,0.00128192,53.1474,176.0729,356.7065,92.439,61537.0,999.0,603.0,0.0013322408,0.00510345,0.00011569975
STARLINK-11687 [DTC],2025-075H,2026-03-21T06:00:02.999808,15.97243238,0.00104924,42.9884,79.9276,135.9312,201.3694,63555.0,999.0,587.0,0.0013489193,0.00616032,0.00016883883
COSMOS 2591,2025-182A,2026-03-20T23:19:37.106400,15.96417784,0.00107466,96.5888,12.9779,125.8407,234.3871,65267.0,999.0,3362.0,0.00028254116,0.00117537,7.131806e-06
COSMOS 2592,2025-182B,2026-03-19T08:35:15.050976,15.96376735,0.00090527,96.5913,11.3505,127.106,233.1047,65268.0,999.0,3336.0,1.3906957e-05,5.207e-05,1.860522e-06
COSMOS 2593,2025-182C,2026-03-20T21:04:14.733984,15.96430237,0.00087118,96.5904,12.8133,123.4221,236.7891,65269.0,999.0,3360.0,3.6552085e-05,0.00014677,1.934342e-06
COSMOS 2594,2025-182D,2026-03-19T15:21:28.510848,15.96414326,0.00087938,96.5898,11.5786,121.408,238.806,65270.0,999.0,3342.0,9.3104e-08,-5.45e-06,1.847244e-06
STARLINK-34411,2025-192L,2026-03-21T06:00:02.999808,15.95101204,0.00130213,53.1346,161.1197,342.7125,82.3056,65414.0,999.0,567.0,0.0013399641,0.00537396,0.00012902658
STARLINK-36604,2026-049A,2026-03-19T13:52:52.185792,16.01563866,5.554e-05,97.2797,98.1391,65.4234,294.7104,68142.0,999.0,96.0,-0.0010855232,-0.00601426,0.00012953804
